QIANFAN-57              
1 62787U 25016C   25336.23393182  .00000158  00000+0  22542-3 0  9995
2 62787  88.9779 104.2819 0001943 127.6518 232.4810 13.50983785 45785
QIANFAN-58              
1 62788U 25016D   25336.27922444  .00000158  00000+0  22663-3 0  9993
2 62788  88.9748 104.1122 0013969  20.3002 339.8702 13.50974779 45837
QIANFAN-59              
1 62789U 25016E   25336.22983302  .00000141  00000+0  19979-3 0  9997
2 62789  88.9772 104.1884 0014458  24.0253 336.1569 13.50976412 45829
QIANFAN-60              
1 62790U 25016F   25336.26292260  .00000048  00000+0  54924-4 0  9995
2 62790  88.9753 104.1586 0015858  19.9084 340.2683 13.50979699 45811
QIANFAN-61              
1 62791U 25016G   25336.22161749  .00000141  00000+0  19898-3 0  9993
2 62791  88.9820 104.3185 0014815  19.7656 340.4066 13.50976837 45828
QIANFAN-62              
1 62792U 25016H   25336.29977351  .00000145  00000+0  20546-3 0  9991
2 62792  88.9767 104.1845 0016191  19.3709 340.8054 13.50986829 45827
QIANFAN-63              
1 62793U 25016J   25336.17640778  .00000138  00000+0  19496-3 0  9993
2 62793  88.9773 104.1481 0016404  24.9420 335.2520 13.50979826 45847
QIANFAN-64              
1 62794U 25016K   25336.29154011  .00000139  00000+0  19684-3 0  9997
2 62794  88.9760 104.1117 0014146  18.5268 341.6395 13.50981800 45857
